NORAD_CAT_ID,OBJECT_NAME,OBJECT_TYPE,EPOCH,MEAN_MOTION,ECCENTRICITY,INCLINATION,RA_OF_ASC_NODE,ARG_OF_PERICENTER,MEAN_ANOMALY,BSTAR,MEAN_MOTION_DOT,MEAN_MOTION_DDOT,TLE_LINE0,TLE_LINE1,TLE_LINE2,SEMIMAJOR_AXIS,PERIOD,APOGEE,PERIGEE,DECAYED
51956.0,STARLINK-3700,PAYLOAD,2023-03-13 10:54:52,15.08047723,0.0001087,53.2106,252.4036,78.1049,282.0064,0.00032976,4.854e-05,0.0,0 STARLINK-3700,1 51956U 22025A   23072.45477906  .00004854  00000-0  32976-3 0  9994,2 51956  53.2106 252.4036 0001087  78.1049 282.0064 15.08047723 56305,6920.303,95.488,542.92,541.416,0.0
51956.0,STARLINK-3700,PAYLOAD,2023-03-13 22:02:55,15.0805524,0.0001149,53.2106,250.3234,76.3219,283.79,0.00045462,6.803e-05,0.0,0 STARLINK-3700,1 51956U 22025A   23072.91870080  .00006803  00000-0  45462-3 0  9995,2 51956  53.2106 250.3234 0001149  76.3219 283.7900 15.08055240 56377,6920.28,95.487,542.94,541.35,0.0
51956.0,STARLINK-3700,PAYLOAD,2023-03-14 12:21:51,15.08050072,0.0001959,53.2096,247.6455,112.4579,247.662,0.00018219,2.553e-05,0.0,0 STARLINK-3700,1 51956U 22025A   23073.51517576  .00002553  00000-0  18219-3 0  9998,2 51956  53.2096 247.6455 0001959 112.4579 247.6620 15.08050072 57556,6920.296,95.488,543.517,540.805,0.0
51956.0,STARLINK-3700,PAYLOAD,2023-03-14 18:43:35,15.08058561,9.37e-05,53.2101,246.4585,96.8608,263.249,0.0003772,5.596e-05,0.0,0 STARLINK-3700,1 51956U 22025A   23073.78027218  .00005596  00000-0  37720-3 0  9994,2 51956  53.2101 246.4585 0000937  96.8608 263.2490 15.08058561 56501,6920.27,95.487,542.783,541.487,0.0
51956.0,STARLINK-3700,PAYLOAD,2023-03-14 21:54:27,15.08064472,0.0001279,53.2092,245.8624,101.703,258.4105,0.00046436,6.957e-05,0.0,0 STARLINK-3700,1 51956U 22025A   23073.91281899  .00006957  00000-0  46436-3 0  9992,2 51956  53.2092 245.8624 0001279 101.7030 258.4105 15.08064472 57612,6920.252,95.487,543.002,541.232,0.0
51956.0,STARLINK-3700,PAYLOAD,2023-03-15 10:37:57,15.08048193,0.0001736,53.2032,243.4823,98.8421,261.2767,0.0001228,1.627e-05,0.0,0 STARLINK-3700,1 51956U 22025A   23074.44302297  .00001627  00000-0  12280-3 0  9996,2 51956  53.2032 243.4823 0001736  98.8421 261.2767 15.08048193 57695,6920.302,95.488,543.368,540.965,0.0
51956.0,STARLINK-3700,PAYLOAD,2023-03-15 20:10:33,15.08054444,0.0001817,53.2031,241.6997,100.0966,260.023,0.0002317,3.325e-05,0.0,0 STARLINK-3700,1 51956U 22025A   23074.84066892  .00003325  00000-0  23170-3 0  9995,2 51956  53.2031 241.6997 0001817 100.0966 260.0230 15.08054444 56660,6920.283,95.487,543.405,540.89,0.0
51956.0,STARLINK-3700,PAYLOAD,2023-03-16 10:29:29,15.08038842,0.000208,53.2027,239.0261,89.8497,270.2733,-3.0881e-05,-7.67e-06,0.0,0 STARLINK-3700,1 51956U 22025A   23075.43715046 -.00000767  00000-0 -30881-4 0  9990,2 51956  53.2027 239.0261 0002080  89.8497 270.2733 15.08038842 57842,6920.33,95.488,543.635,540.756,0.0
51956.0,STARLINK-3700,PAYLOAD,2023-03-16 20:02:07,15.0803081,0.0001315,53.2016,237.2436,90.4275,269.6868,-0.00017012,-2.933e-05,0.0,0 STARLINK-3700,1 51956U 22025A   23075.83480429 -.00002933  00000-0 -17012-3 0  9995,2 51956  53.2016 237.2436 0001315  90.4275 269.6868 15.08030810 57901,6920.355,95.489,543.13,541.31,0.0
51956.0,STARLINK-3700,PAYLOAD,2023-03-17 10:21:03,15.08032823,0.0001631,53.1989,234.5655,95.7703,264.3474,3.0042e-05,1.82e-06,0.0,0 STARLINK-3700,1 51956U 22025A   23076.43128498  .00000182  00000-0  30042-4 0  9998,2 51956  53.1989 234.5655 0001631  95.7703 264.3474 15.08032823 56907,6920.349,95.489,543.342,541.085,0.0
51956.0,STARLINK-3700,PAYLOAD,2023-03-17 19:53:39,15.0804189,0.000144,53.2,232.7832,89.6306,270.485,0.00027476,3.995e-05,0.0,0 STARLINK-3700,1 51956U 22025A   23076.82893450  .00003995  00000-0  27476-3 0  9999,2 51956  53.2000 232.7832 0001440  89.6306 270.4850 15.08041890 58056,6920.321,95.488,543.182,541.189,0.0
51956.0,STARLINK-3700,PAYLOAD,2023-03-18 19:45:12,15.08052893,0.0001496,53.1999,228.3245,89.1413,270.975,0.00046503,6.965e-05,0.0,0 STARLINK-3700,1 51956U 22025A   23077.82305891  .00006965  00000-0  46503-3 0  9999,2 51956  53.1999 228.3245 0001496  89.1413 270.9750 15.08052893 57111,6920.287,95.487,543.188,541.117,0.0
51956.0,STARLINK-3700,PAYLOAD,2023-03-19 13:14:59,15.08058198,0.0001426,53.2003,225.0548,83.2661,276.8493,0.00035119,5.19e-05,0.0,0 STARLINK-3700,1 51956U 22025A   23078.55207852  .00005190  00000-0  35119-3 0  9998,2 51956  53.2003 225.0548 0001426  83.2661 276.8493 15.08058198 57226,6920.271,95.487,543.123,541.149,0.0
51956.0,STARLINK-3700,PAYLOAD,2023-03-19 14:50:25,15.08058905,0.0001435,53.2005,224.7569,86.4183,273.6973,0.00033765,4.978e-05,0.0,0 STARLINK-3700,1 51956U 22025A   23078.61835178  .00004978  00000-0  33765-3 0  9991,2 51956  53.2005 224.7569 0001435  86.4183 273.6973 15.08058905 58327,6920.269,95.487,543.127,541.141,0.0
51956.0,STARLINK-3700,PAYLOAD,2023-03-19 19:36:43,15.08070853,0.0001404,53.2002,223.8649,89.8851,270.2302,0.00054796,8.264e-05,0.0,0 STARLINK-3700,1 51956U 22025A   23078.81717059  .00008264  00000-0  54796-3 0  9999,2 51956  53.2002 223.8649 0001404  89.8851 270.2302 15.08070853 57265,6920.232,95.486,543.069,541.126,0.0
51956.0,STARLINK-3700,PAYLOAD,2023-03-20 08:20:13,15.08035837,6.94e-05,53.2005,221.4873,62.8227,297.2836,-0.00022494,-3.786e-05,0.0,0 STARLINK-3700,1 51956U 22025A   23079.34738029 -.00003786  00000-0 -22494-3 0  9994,2 51956  53.2005 221.4873 0000694  62.8227 297.2836 15.08035837 58433,6920.339,95.488,542.685,541.724,0.0
51956.0,STARLINK-3700,PAYLOAD,2023-03-20 13:06:31,15.08044818,0.0001651,53.2001,220.5956,108.0385,252.0786,-5.8989e-05,-1.204e-05,0.0,0 STARLINK-3700,1 51956U 22025A   23079.54620159 -.00001204  00000-0 -58989-4 0  9992,2 51956  53.2001 220.5956 0001651 108.0385 252.0786 15.08044818 57377,6920.312,95.488,543.32,541.034,0.0
51956.0,STARLINK-3700,PAYLOAD,2023-03-20 14:41:57,15.0804612,0.0001712,53.2,220.2982,110.1412,249.9763,-1.0803e-05,-4.54e-06,0.0,0 STARLINK-3700,1 51956U 22025A   23079.61247575 -.00000454  00000-0 -10803-4 0  9996,2 51956  53.2000 220.2982 0001712 110.1412 249.9763 15.08046120 58475,6920.308,95.488,543.358,540.988,0.0
51956.0,STARLINK-3700,PAYLOAD,2023-03-20 16:17:24,15.08051088,0.0001433,53.1999,220.0018,95.9468,264.1687,0.00021886,3.125e-05,0.0,0 STARLINK-3700,1 51956U 22025A   23079.67875002  .00003125  00000-0  21886-3 0  9992,2 51956  53.1999 220.0018 0001433  95.9468 264.1687 15.08051088 57393,6920.293,95.487,543.15,541.166,0.0
51956.0,STARLINK-3700,PAYLOAD,2023-03-21 09:47:11,15.08049654,0.000144,53.1995,216.7324,103.2645,256.8507,0.00052739,7.938e-05,0.0,0 STARLINK-3700,1 51956U 22025A   23080.40777552  .00007938  00000-0  52739-3 0  9993,2 51956  53.1995 216.7324 0001440 103.2645 256.8507 15.08049654 57507,6920.297,95.488,543.159,541.166,0.0
51956.0,STARLINK-3700,PAYLOAD,2023-03-21 12:58:04,15.08051785,0.0001421,53.1995,216.1378,103.2838,256.8312,0.00049416,7.42e-05,0.0,0 STARLINK-3700,1 51956U 22025A   23080.54032445  .00007420  00000-0  49416-3 0  9997,2 51956  53.1995 216.1378 0001421 103.2838 256.8312 15.08051785 57527,6920.291,95.487,543.139,541.172,0.0
51956.0,STARLINK-3700,PAYLOAD,2023-03-22 01:41:33,15.08049489,0.000136,53.1988,213.7595,103.1827,256.9316,0.00026094,3.781e-05,0.0,0 STARLINK-3700,1 51956U 22025A   23081.07052306  .00003781  00000-0  26094-3 0  9997,2 51956  53.1988 213.7595 0001360 103.1827 256.9316 15.08049489 58694,6920.298,95.488,543.104,541.222,0.0
51956.0,STARLINK-3700,PAYLOAD,2023-03-22 16:00:28,15.08042121,0.0001509,53.1992,211.0839,107.809,252.3066,0.00017244,2.401e-05,0.0,0 STARLINK-3700,1 51956U 22025A   23081.66700090  .00002401  00000-0  17244-3 0  9997,2 51956  53.1992 211.0839 0001509 107.8090 252.3066 15.08042121 58787,6920.32,95.488,543.23,541.141,0.0
51956.0,STARLINK-3700,PAYLOAD,2023-03-23 12:41:09,15.0803296,9.4e-05,53.195,207.2175,89.6793,270.4307,3.1261e-05,2.01e-06,0.0,0 STARLINK-3700,1 51956U 22025A   23082.52858020  .00000201  00000-0  31261-4 0  9992,2 51956  53.1950 207.2175 0000940  89.6793 270.4307 15.08032960 58910,6920.348,95.489,542.864,541.563,0.0
51956.0,STARLINK-3700,PAYLOAD,2023-03-23 14:16:35,15.08049548,0.0001453,53.1962,206.9207,52.7077,307.4047,0.00030266,4.431e-05,0.0,0 STARLINK-3700,1 51956U 22025A   23082.59485280  .00004431  00000-0  30266-3 0  9995,2 51956  53.1962 206.9207 0001453  52.7077 307.4047 15.08049548 57833,6920.298,95.488,543.168,541.157,0.0
51956.0,STARLINK-3700,PAYLOAD,2023-03-23 15:52:01,15.08051352,0.0001141,53.1953,206.6227,72.5478,287.5638,0.00030999,4.546e-05,0.0,0 STARLINK-3700,1 51956U 22025A   23082.66112540  .00004546  00000-0  30999-3 0  9999,2 51956  53.1953 206.6227 0001141  72.5478 287.5638 15.08051352 58933,6920.292,95.487,542.947,541.367,0.0
51956.0,STARLINK-3700,PAYLOAD,2023-03-24 01:24:38,15.08034589,0.0001176,53.197,204.8419,84.0546,276.0579,0.00011375,1.486e-05,0.0,0 STARLINK-3700,1 51956U 22025A   23083.05878398  .00001486  00000-0  11375-3 0  9990,2 51956  53.1970 204.8419 0001176  84.0546 276.0579 15.08034589 58993,6920.343,95.489,543.022,541.394,0.0
51956.0,STARLINK-3700,PAYLOAD,2023-03-24 07:46:24,15.08031699,0.0001206,53.1982,203.6529,87.3835,272.7294,0.0001448,1.969e-05,0.0,0 STARLINK-3700,1 51956U 22025A   23083.32389139  .00001969  00000-0  14480-3 0  9996,2 51956  53.1982 203.6529 0001206  87.3835 272.7294 15.08031699 59038,6920.352,95.489,543.052,541.383,0.0
51956.0,STARLINK-3700,PAYLOAD,2023-03-24 12:32:41,15.08055611,0.0001047,53.1958,202.7609,75.9855,284.1253,0.00071812,0.00010919,0.0,0 STARLINK-3700,1 51956U 22025A   23083.52270719  .00010919  00000-0  71812-3 0  9998,2 51956  53.1958 202.7609 0001047  75.9855 284.1253 15.08055611 59063,6920.279,95.487,542.869,541.419,0.0
51956.0,STARLINK-3700,PAYLOAD,2023-03-25 18:46:01,15.08026553,0.0001426,53.1936,197.1118,117.9593,242.1543,0.00029184,4.26e-05,0.0,0 STARLINK-3700,1 51956U 22025A   23084.78196001  .00004260  00000-0  29184-3 0  9995,2 51956  53.1936 197.1118 0001426 117.9593 242.1543 15.08026553 59258,6920.368,95.489,543.22,541.246,0.0
